{
  "type": "FeatureCollection",
  "features": [
    {
      "type": "Feature",
      "properties": {
        "norad_id": 34299,
        "name": "COSMOS 2251 DEB",
        "group": "cosmos-2251-debris",
        "lat": 73.24710161266327,
        "lon": 49.859927260722124,
        "alt_km": 337.5385591771628,
        "timestamp": "2025-12-11T13:55:02.560117+00:00",
        "meta_object_name": "COSMOS 2251 DEB",
        "meta_object_id": "1993-036MV",
        "meta_epoch": "2025-12-11T01:19:27.132960",
        "meta_mean_motion": 15.69667333,
        "meta_eccentricity": 0.00208194,
        "meta_inclination": 73.9779,
        "meta_ra_of_asc_node": 338.3697,
        "meta_arg_of_pericenter": 57.844,
        "meta_mean_anomaly": 302.4799,
        "meta_ephemeris_type": 0,
        "meta_classification_type": "U",
        "meta_norad_cat_id": 34299,
        "meta_element_set_no": 999,
        "meta_rev_at_epoch": 88984,
        "meta_bstar": 0.0076398104,
        "meta_mean_motion_dot": 0.01012583,
        "meta_mean_motion_ddot": 0,
        "tle_line1": "1 34299U 93036MV  25345.05517515  .01012583  00000+0  76398-2 0  9990",
        "tle_line2": "2 34299  73.9779 338.3697 0020819  57.8440 302.4799 15.69667333889848"
      },
      "geometry": {
        "type": "Point",
        "coordinates": [
          49.859927260722124,
          73.24710161266327
        ]
      }
    },
    {
      "type": "Feature",
      "properties": {
        "norad_id": 34301,
        "name": "COSMOS 2251 DEB",
        "group": "cosmos-2251-debris",
        "lat": 33.11307192809413,
        "lon": -21.774588609018938,
        "alt_km": 612.0750752847534,
        "timestamp": "2025-12-11T13:55:02.560127+00:00",
        "meta_object_name": "COSMOS 2251 DEB",
        "meta_object_id": "1993-036MX",
        "meta_epoch": "2025-12-10T21:23:31.255008",
        "meta_mean_motion": 14.84387447,
        "meta_eccentricity": 0.0011526,
        "meta_inclination": 74.0055,
        "meta_ra_of_asc_node": 170.3754,
        "meta_arg_of_pericenter": 230.3248,
        "meta_mean_anomaly": 197.0552,
        "meta_ephemeris_type": 0,
        "meta_classification_type": "U",
        "meta_norad_cat_id": 34301,
        "meta_element_set_no": 999,
        "meta_rev_at_epoch": 88373,
        "meta_bstar": 0.0044269,
        "meta_mean_motion_dot": 0.00037424,
        "meta_mean_motion_ddot": 0,
        "tle_line1": "1 34301U 93036MX  25344.89133397  .00037424  00000+0  44269-2 0  9999",
        "tle_line2": "2 34301  74.0055 170.3754 0011526 230.3248 197.0552 14.84387447883736"
      },
      "geometry": {
        "type": "Point",
        "coordinates": [
          -21.774588609018938,
          33.11307192809413
        ]
      }
    },
    {
      "type": "Feature",
      "properties": {
        "norad_id": 34302,
        "name": "COSMOS 2251 DEB",
        "group": "cosmos-2251-debris",
        "lat": 59.45015292584268,
        "lon": 154.4177120687098,
        "alt_km": 746.6749351398767,
        "timestamp": "2025-12-11T13:55:02.560138+00:00",
        "meta_object_name": "COSMOS 2251 DEB",
        "meta_object_id": "1993-036MY",
        "meta_epoch": "2025-12-11T03:51:47.337984",
        "meta_mean_motion": 14.39321388,
        "meta_eccentricity": 0.00786754,
        "meta_inclination": 74.178,
        "meta_ra_of_asc_node": 126.4692,
        "meta_arg_of_pericenter": 342.153,
        "meta_mean_anomaly": 70.721,
        "meta_ephemeris_type": 0,
        "meta_classification_type": "U",
        "meta_norad_cat_id": 34302,
        "meta_element_set_no": 999,
        "meta_rev_at_epoch": 87698,
        "meta_bstar": 0.00095187738,
        "meta_mean_motion_dot": 3.041e-05,
        "meta_mean_motion_ddot": 0,
        "tle_line1": "1 34302U 93036MY  25345.16096456  .00003041  00000+0  95188-3 0  9990",
        "tle_line2": "2 34302  74.1780 126.4692 0078675 342.1530  70.7210 14.39321388876989"
      },
      "geometry": {
        "type": "Point",
        "coordinates": [
          154.4177120687098,
          59.45015292584268
        ]
      }
    },
    {
      "type": "Feature",
      "properties": {
        "norad_id": 34303,
        "name": "COSMOS 2251 DEB",
        "group": "cosmos-2251-debris",
        "lat": -3.1997782090382825,
        "lon": 111.15891784718451,
        "alt_km": 752.6004396935577,
        "timestamp": "2025-12-11T13:55:02.560159+00:00",
        "meta_object_name": "COSMOS 2251 DEB",
        "meta_object_id": "1993-036MZ",
        "meta_epoch": "2025-12-11T07:12:46.342368",
        "meta_mean_motion": 14.54421206,
        "meta_eccentricity": 0.01349931,
        "meta_inclination": 74.0055,
        "meta_ra_of_asc_node": 290.7694,
        "meta_arg_of_pericenter": 69.4898,
        "meta_mean_anomaly": 90.2247,
        "meta_ephemeris_type": 0,
        "meta_classification_type": "U",
        "meta_norad_cat_id": 34303,
        "meta_element_set_no": 999,
        "meta_rev_at_epoch": 87941,
        "meta_bstar": 0.0026605778,
        "meta_mean_motion_dot": 0.00012776,
        "meta_mean_motion_ddot": 0,
        "tle_line1": "1 34303U 93036MZ  25345.30053637  .00012776  00000+0  26606-2 0  9994",
        "tle_line2": "2 34303  74.0055 290.7694 0134993  69.4898  90.2247 14.54421206879418"
      },
      "geometry": {
        "type": "Point",
        "coordinates": [
          111.15891784718451,
          -3.1997782090382825
        ]
      }
    },
    {
      "type": "Feature",
      "properties": {
        "norad_id": 34304,
        "name": "COSMOS 2251 DEB",
        "group": "cosmos-2251-debris",
        "lat": 3.652344195116194,
        "lon": 125.78338423799755,
        "alt_km": 784.4789663567663,
        "timestamp": "2025-12-11T13:55:02.560171+00:00",
        "meta_object_name": "COSMOS 2251 DEB",
        "meta_object_id": "1993-036NA",
        "meta_epoch": "2025-12-11T03:01:44.391072",
        "meta_mean_motion": 14.37833855,
        "meta_eccentricity": 0.01288986,
        "meta_inclination": 74.0134,
        "meta_ra_of_asc_node": 125.5713,
        "meta_arg_of_pericenter": 263.6755,
        "meta_mean_anomaly": 271.3736,
        "meta_ephemeris_type": 0,
        "meta_classification_type": "U",
        "meta_norad_cat_id": 34304,
        "meta_element_set_no": 999,
        "meta_rev_at_epoch": 87273,
        "meta_bstar": 0.0023197666,
        "meta_mean_motion_dot": 7.678e-05,
        "meta_mean_motion_ddot": 0,
        "tle_line1": "1 34304U 93036NA  25345.12620823  .00007678  00000+0  23198-2 0  9990",
        "tle_line2": "2 34304  74.0134 125.5713 0128898 263.6755 271.3736 14.37833855872732"
      },
      "geometry": {
        "type": "Point",
        "coordinates": [
          125.78338423799755,
          3.652344195116194
        ]
      }
    },
    {
      "type": "Feature",
      "properties": {
        "norad_id": 34307,
        "name": "COSMOS 2251 DEB",
        "group": "cosmos-2251-debris",
        "lat": -18.87130353053835,
        "lon": 140.58539965702184,
        "alt_km": 879.8737318336462,
        "timestamp": "2025-12-11T13:55:02.560181+00:00",
        "meta_object_name": "COSMOS 2251 DEB",
        "meta_object_id": "1993-036ND",
        "meta_epoch": "2025-12-10T09:20:15.213408",
        "meta_mean_motion": 13.54315638,
        "meta_eccentricity": 0.0392135,
        "meta_inclination": 74.0532,
        "meta_ra_of_asc_node": 316.8871,
        "meta_arg_of_pericenter": 148.3468,
        "meta_mean_anomaly": 3.9089,
        "meta_ephemeris_type": 0,
        "meta_classification_type": "U",
        "meta_norad_cat_id": 34307,
        "meta_element_set_no": 999,
        "meta_rev_at_epoch": 82830,
        "meta_bstar": 0.00082870647,
        "meta_mean_motion_dot": 9.03e-06,
        "meta_mean_motion_ddot": 0,
        "tle_line1": "1 34307U 93036ND  25344.38906497  .00000903  00000+0  82871-3 0  9992",
        "tle_line2": "2 34307  74.0532 316.8871 0392135 148.3468   3.9089 13.54315638828300"
      },
      "geometry": {
        "type": "Point",
        "coordinates": [
          140.58539965702184,
          -18.87130353053835
        ]
      }
    },
    {
      "type": "Feature",
      "properties": {
        "norad_id": 34313,
        "name": "COSMOS 2251 DEB",
        "group": "cosmos-2251-debris",
        "lat": 15.69234978168086,
        "lon": -47.43707619682148,
        "alt_km": 506.6831366545466,
        "timestamp": "2025-12-11T13:55:02.560192+00:00",
        "meta_object_name": "COSMOS 2251 DEB",
        "meta_object_id": "1993-036NK",
        "meta_epoch": "2025-12-11T05:56:27.815424",
        "meta_mean_motion": 15.186992,
        "meta_eccentricity": 0.0011547,
        "meta_inclination": 73.973,
        "meta_ra_of_asc_node": 308.6284,
        "meta_arg_of_pericenter": 83.5392,
        "meta_mean_anomaly": 276.7119,
        "meta_ephemeris_type": 0,
        "meta_classification_type": "U",
        "meta_norad_cat_id": 34313,
        "meta_element_set_no": 999,
        "meta_rev_at_epoch": 89042,
        "meta_bstar": 0.0080059965,
        "meta_mean_motion_dot": 0.00170317,
        "meta_mean_motion_ddot": 0,
        "tle_line1": "1 34313U 93036NK  25345.24754416  .00170317  00000+0  80060-2 0  9991",
        "tle_line2": "2 34313  73.9730 308.6284 0011547  83.5392 276.7119 15.18699200890421"
      },
      "geometry": {
        "type": "Point",
        "coordinates": [
          -47.43707619682148,
          15.69234978168086
        ]
      }
    }
  ]
}